OBJECT_NAME,OBJECT_ID,EPOCH,MEAN_MOTION,ECCENTRICITY,INCLINATION,RA_OF_ASC_NODE,ARG_OF_PERICENTER,MEAN_ANOMALY,EPHEMERIS_TYPE,CLASSIFICATION_TYPE,NORAD_CAT_ID,ELEMENT_SET_NO,REV_AT_EPOCH,BSTAR,MEAN_MOTION_DOT,MEAN_MOTION_DDOT
ONEWEB-0667,2023-029AH,2026-06-17T18:50:42.621792,13.20771795,.0001811,87.9200,274.3112,98.4422,261.6917,0,U,55827,999,16122,.89260068E-4,.49E-6,0
ONEWEB-0669,2023-029AJ,2026-06-18T05:37:58.145664,13.20772230,.0002218,87.9190,274.2329,86.2997,273.8390,0,U,55828,999,16128,.163819E-3,.8E-6,0
ONEWEB-0670,2023-029AK,2026-06-17T21:32:11.359680,13.14502709,.00016542,87.8956,289.5989,89.9829,270.1490,0,U,55829,999,15952,-.48164562E-3,-.166E-5,0
ONEWEB-0671,2023-029AL,2026-06-17T21:32:22.591680,13.19724244,.00016886,87.9171,304.8341,97.7543,262.3782,0,U,55830,999,15899,-.4657523E-5,.11E-6,0
ONEWEB-0672,2023-029AM,2026-06-17T20:25:14.323008,13.20771848,.00022507,87.9194,274.3026,98.7914,261.3474,0,U,55831,999,16123,.11962937E-3,.62E-6,0
ONEWEB-0673,2023-029AN,2026-06-17T20:59:23.427744,13.19726917,.0001735,87.9178,304.8304,96.7434,263.3896,0,U,55832,999,15899,.96578622E-4,.52E-6,0
ONEWEB-0674,2023-029AP,2026-06-17T20:46:30.534816,13.14504133,.00016932,87.8955,289.5824,89.0239,271.1084,0,U,55833,999,15950,.58311901E-3,.229E-5,0
ONEWEB-0675,2023-029AQ,2026-06-17T21:21:01.158336,13.19724323,.0002119,87.9172,304.8370,103.6940,256.4429,0,U,55834,999,15901,.925467E-4,.5E-6,0
ONEWEB-0720,2023-029AR,2026-06-17T21:09:38.282112,13.19724694,.00016297,87.9168,304.8387,105.3964,254.7349,0,U,55835,999,15893,.15607182E-3,.75E-6,0
ONEWEB-0537,2023-043A,2026-06-18T02:33:27.067392,13.16594802,.00022976,87.9097,228.5893,98.2699,261.8692,0,U,56046,999,15908,-.24550973E-4,.3E-7,0
ONEWEB-0538,2023-043B,2026-06-18T02:24:19.837440,13.16595155,.00021546,87.9099,228.5923,104.2399,255.8972,0,U,56047,999,15909,.79947788E-4,.43E-6,0
ONEWEB-0546,2023-043C,2026-06-17T15:09:28.753056,13.16595344,.00027263,87.9100,228.6856,95.4030,264.7412,0,U,56048,999,15902,.20406025E-3,.91E-6,0
ONEWEB-0547,2023-043D,2026-06-17T15:02:19.039200,13.21826119,.00019728,87.9259,243.8868,103.9268,256.2085,0,U,56049,999,15828,.21529856E-3,.102E-5,0
ONEWEB-0548,2023-043E,2026-06-18T02:41:24.248544,13.16595052,.00019873,87.9093,228.5868,84.9563,275.1795,0,U,56050,999,15908,-.76628997E-3,-.28E-5,0
ONEWEB-0549,2023-043F,2026-06-17T18:31:51.081600,13.21825692,.00021245,87.9251,243.8643,109.6394,250.4970,0,U,56051,999,15830,.26884769E-3,.124E-5,0
ONEWEB-0550,2023-043G,2026-06-18T03:17:30.068448,13.21826247,.00019014,87.9254,243.7890,93.5179,266.6173,0,U,56052,999,15835,.11005715E-3,.58E-6,0
ONEWEB-0551,2023-043H,2026-06-17T18:19:42.646656,13.15549289,.00019696,87.9002,259.1114,111.2049,248.9292,0,U,56053,999,15647,.98746724E-4,.5E-6,0
ONEWEB-0552,2023-043J,2026-06-18T04:59:11.436864,13.21828406,.00018459,87.9251,243.7805,100.8960,259.2381,0,U,56054,999,15836,.11464881E-3,.6E-6,0
ONEWEB-0553,2023-043K,2026-06-17T17:08:01.830048,13.16594815,.0002445,87.9096,228.6699,93.3728,266.7682,0,U,56055,999,15904,.51270972E-4,.32E-6,0
ONEWEB-0554,2023-043L,2026-06-18T01:56:59.174880,13.16595201,.00019492,87.9095,228.6058,82.1330,278.0022,0,U,56056,999,15907,.79558774E-4,.43E-6,0
ONEWEB-0555,2023-043M,2026-06-18T02:51:39.229920,13.16596807,.0002667,87.9100,228.5866,93.6704,266.4732,0,U,56057,999,15908,-.10817077E-3,-.29E-6,0
ONEWEB-0557,2023-043N,2026-06-18T03:12:12.104352,13.16594729,.00027196,87.9095,228.5938,70.8956,289.2470,0,U,56058,999,15908,.55500481E-4,.34E-6,0
ONEWEB-0558,2023-043P,2026-06-17T17:55:29.287200,13.21827979,.0002199,87.9254,243.8671,107.1714,252.9661,0,U,56059,999,15831,-.34417311E-4,-.1E-7,0
ONEWEB-0559,2023-043Q,2026-06-18T04:32:32.891712,13.21825624,.00019292,87.9256,243.7741,104.7388,255.3960,0,U,56060,999,15838,.10662269E-4,.17E-6,0
ONEWEB-0566,2023-043R,2026-06-18T04:22:52.968000,13.21826877,.00019275,87.9254,243.7736,108.0390,252.0954,0,U,56061,999,15836,-.92015029E-4,-.25E-6,0
ONEWEB-0568,2023-043S,2026-06-17T14:51:14.510880,13.16594547,.00023413,87.9096,228.6856,95.3322,264.8076,0,U,56062,999,15903,.25874555E-3,.112E-5,0
ONEWEB-0574,2023-043T,2026-06-17T17:19:10.235136,13.21824641,.00020356,87.9266,243.8682,93.0737,267.0630,0,U,56063,999,15834,.11576629E-3,.61E-6,0
ONEWEB-0575,2023-043U,2026-06-18T03:28:10.413408,13.16594360,.00022427,87.9096,228.5777,86.6634,273.4754,0,U,56064,999,15909,.33080517E-3,.139E-5,0
ONEWEB-0576,2023-043V,2026-06-18T03:00:48.257856,13.16594566,.00022354,87.9098,228.5892,88.3810,271.7576,0,U,56065,999,15908,-.20840171E-4,.5E-7,0
ONEWEB-0577,2023-043W,2026-06-18T03:09:56.044224,13.16593510,.00021631,87.9098,228.5856,76.2339,283.9033,0,U,56066,999,15911,-.1242396E-4,.8E-7,0
