ONEWEB-0667             
1 55827U 23029AH  26168.78521553  .00000049  00000+0  89260-4 0  9993
2 55827  87.9200 274.3112 0001811  98.4422 261.6917 13.20771795161221
ONEWEB-0669             
1 55828U 23029AJ  26169.23470076  .00000080  00000+0  16382-3 0  9997
2 55828  87.9190 274.2329 0002218  86.2997 273.8390 13.20772230161284
ONEWEB-0670             
1 55829U 23029AK  26168.89735370 -.00000166  00000+0 -48165-3 0  9991
2 55829  87.8956 289.5989 0001654  89.9829 270.1490 13.14502709159522
ONEWEB-0671             
1 55830U 23029AL  26168.89748370  .00000011  00000+0 -46575-5 0  9990
2 55830  87.9171 304.8341 0001688  97.7543 262.3782 13.19724244158996
ONEWEB-0672             
1 55831U 23029AM  26168.85086022  .00000062  00000+0  11963-3 0  9992
2 55831  87.9194 274.3026 0002250  98.7914 261.3474 13.20771848161234
ONEWEB-0673             
1 55832U 23029AN  26168.87457671  .00000052  00000+0  96579-4 0  9993
2 55832  87.9178 304.8304 0001735  96.7434 263.3896 13.19726917158991
ONEWEB-0674             
1 55833U 23029AP  26168.86563119  .00000229  00000+0  58312-3 0  9996
2 55833  87.8955 289.5824 0001693  89.0239 271.1084 13.14504133159504
ONEWEB-0675             
1 55834U 23029AQ  26168.88959674  .00000050  00000+0  92547-4 0  9995
2 55834  87.9172 304.8370 0002119 103.6940 256.4429 13.19724323159015
ONEWEB-0720             
1 55835U 23029AR  26168.88169308  .00000075  00000+0  15607-3 0  9991
2 55835  87.9168 304.8387 0001629 105.3964 254.7349 13.19724694158932
ONEWEB-0537             
1 56046U 23043A   26169.10656328  .00000003  00000+0 -24551-4 0  9992
2 56046  87.9097 228.5893 0002297  98.2699 261.8692 13.16594802159089
ONEWEB-0538             
1 56047U 23043B   26169.10022960  .00000043  00000+0  79948-4 0  9995
2 56047  87.9099 228.5923 0002154 104.2399 255.8972 13.16595155159090
ONEWEB-0546             
1 56048U 23043C   26168.63158279  .00000091  00000+0  20406-3 0  9993
2 56048  87.9100 228.6856 0002726  95.4030 264.7412 13.16595344159029
ONEWEB-0547             
1 56049U 23043D   26168.62660925  .00000102  00000+0  21530-3 0  9991
2 56049  87.9259 243.8868 0001972 103.9268 256.2085 13.21826119158289
ONEWEB-0548             
1 56050U 23043E   26169.11208621 -.00000280  00000+0 -76629-3 0  9997
2 56050  87.9093 228.5868 0001987  84.9563 275.1795 13.16595052159089
ONEWEB-0549             
1 56051U 23043F   26168.77211900  .00000124  00000+0  26885-3 0  9997
2 56051  87.9251 243.8643 0002124 109.6394 250.4970 13.21825692158305
ONEWEB-0550             
1 56052U 23043G   26169.13715357  .00000058  00000+0  11006-3 0  9999
2 56052  87.9254 243.7890 0001901  93.5179 266.6173 13.21826247158352
ONEWEB-0551             
1 56053U 23043H   26168.76368804  .00000050  00000+0  98747-4 0  9999
2 56053  87.9002 259.1114 0001969 111.2049 248.9292 13.15549289156479
ONEWEB-0552             
1 56054U 23043J   26169.20777126  .00000060  00000+0  11465-3 0  9993
2 56054  87.9251 243.7805 0001845 100.8960 259.2381 13.21828406158363
ONEWEB-0553             
1 56055U 23043K   26168.71391007  .00000032  00000+0  51271-4 0  9998
2 56055  87.9096 228.6699 0002445  93.3728 266.7682 13.16594815159040
ONEWEB-0554             
1 56056U 23043L   26169.08124045  .00000043  00000+0  79559-4 0  9997
2 56056  87.9095 228.6058 0001949  82.1330 278.0022 13.16595201159079
ONEWEB-0555             
1 56057U 23043M   26169.11920405 -.00000029  00000+0 -10817-3 0  9993
2 56057  87.9100 228.5866 0002667  93.6704 266.4732 13.16596807159086
ONEWEB-0557             
1 56058U 23043N   26169.13347343  .00000034  00000+0  55500-4 0  9993
2 56058  87.9095 228.5938 0002719  70.8956 289.2470 13.16594729159087
ONEWEB-0558             
1 56059U 23043P   26168.74686675 -.00000001  00000+0 -34417-4 0  9994
2 56059  87.9254 243.8671 0002199 107.1714 252.9661 13.21827979158313
ONEWEB-0559             
1 56060U 23043Q   26169.18926958  .00000017  00000+0  10662-4 0  9997
2 56060  87.9256 243.7741 0001929 104.7388 255.3960 13.21825624158385
ONEWEB-0566             
1 56061U 23043R   26169.18255750 -.00000025  00000+0 -92015-4 0  9996
2 56061  87.9254 243.7736 0001927 108.0390 252.0954 13.21826877158362
ONEWEB-0568             
1 56062U 23043S   26168.61891795  .00000112  00000+0  25875-3 0  9993
2 56062  87.9096 228.6856 0002341  95.3322 264.8076 13.16594547159037
ONEWEB-0574             
1 56063U 23043T   26168.72164624  .00000061  00000+0  11577-3 0  9997
2 56063  87.9266 243.8682 0002035  93.0737 267.0630 13.21824641158349
ONEWEB-0575             
1 56064U 23043U   26169.14456497  .00000139  00000+0  33081-3 0  9997
2 56064  87.9096 228.5777 0002242  86.6634 273.4754 13.16594360159097
ONEWEB-0576             
1 56065U 23043V   26169.12555854  .00000005  00000+0 -20840-4 0  9996
2 56065  87.9098 228.5892 0002235  88.3810 271.7576 13.16594566159085
ONEWEB-0577             
1 56066U 23043W   26169.13189866  .00000008  00000+0 -12424-4 0  9996
2 56066  87.9098 228.5856 0002163  76.2339 283.9033 13.16593510159113
